{"type": "FeatureCollection", "features": [ {"type": "Feature", "properties": {"norad_id": 30196, "name": "FENGYUN 1C DEB", "group": "fengyun-1c-debris", "lat": -36.3390686838273, "lon": 94.60715971464671, "alt_km": 793.8132094883076, "timestamp": "2025-12-21T20:41:08.235881+00:00", "meta": {"OBJECT_NAME": "FENGYUN 1C DEB", "OBJECT_ID": "1999-025VD", "EPOCH": "2025-12-21T12:30:55.909152", "MEAN_MOTION": 14.25850056, "ECCENTRICITY": 0.00866207, "INCLINATION": 98.6398, "RA_OF_ASC_NODE": 87.8498, "ARG_OF_PERICENTER": 37.8285, "MEAN_ANOMALY": 339.9907, "EPHEMERIS_TYPE": 0, "CLASSIFICATION_TYPE": "U", "NORAD_CAT_ID": 30196, "ELEMENT_SET_NO": 999, "REV_AT_EPOCH": 98490, "BSTAR": 4.6454671e-05, "MEAN_MOTION_DOT": 7.2e-07, "MEAN_MOTION_DDOT": 0}, "tle": {"line1": "1 30196U 99025VD  25355.52148043  .00000072  00000+0  46455-4 0  9997", "line2": "2 30196  98.6398  87.8498 0086620  37.8285 339.9907 14.25850056984909"}}, "geometry": {"type": "Point", "coordinates": [94.60715971464671, -36.3390686838273]}}, {"type": "Feature", "properties": {"norad_id": 30197, "name": "FENGYUN 1C DEB", "group": "fengyun-1c-debris", "lat": -1.8346342202975179, "lon": 101.28421469353263, "alt_km": 730.1365868379453, "timestamp": "2025-12-21T20:41:08.235890+00:00", "meta": {"OBJECT_NAME": "FENGYUN 1C DEB", "OBJECT_ID": "1999-025VE", "EPOCH": "2025-12-21T08:42:34.354368", "MEAN_MOTION": 14.3722639, "ECCENTRICITY": 0.00572238, "INCLINATION": 98.9396, "RA_OF_ASC_NODE": 281.0548, "ARG_OF_PERICENTER": 188.8464, "MEAN_ANOMALY": 292.5723, "EPHEMERIS_TYPE": 0, "CLASSIFICATION_TYPE": "U", "NORAD_CAT_ID": 30197, "ELEMENT_SET_NO": 999, "REV_AT_EPOCH": 98610, "BSTAR": 0.00053173599, "MEAN_MOTION_DOT": 1.566e-05, "MEAN_MOTION_DDOT": 0}, "tle": {"line1": "1 30197U 99025VE  25355.36289762  .00001566  00000+0  53174-3 0  9998", "line2": "2 30197  98.9396 281.0548 0057223 188.8464 292.5723 14.37226390986103"}}, "geometry": {"type": "Point", "coordinates": [101.28421469353263, -1.8346342202975179]}}, {"type": "Feature", "properties": {"norad_id": 30198, "name": "FENGYUN 1C DEB", "group": "fengyun-1c-debris", "lat": -28.128158894159053, "lon": -57.62062428585859, "alt_km": 669.4890228452095, "timestamp": "2025-12-21T20:41:08.235898+00:00", "meta": {"OBJECT_NAME": "FENGYUN 1C DEB", "OBJECT_ID": "1999-025VF", "EPOCH": "2025-12-21T14:51:16.046208", "MEAN_MOTION": 14.50480064, "ECCENTRICITY": 0.01069472, "INCLINATION": 98.4485, "RA_OF_ASC_NODE": 126.6928, "ARG_OF_PERICENTER": 171.3653, "MEAN_ANOMALY": 208.2857, "EPHEMERIS_TYPE": 0, "CLASSIFICATION_TYPE": "U", "NORAD_CAT_ID": 30198, "ELEMENT_SET_NO": 999, "REV_AT_EPOCH": 98636, "BSTAR": 0.0015409887, "MEAN_MOTION_DOT": 6.444e-05, "MEAN_MOTION_DDOT": 0}, "tle": {"line1": "1 30198U 99025VF  25355.61893572  .00006444  00000+0  15410-2 0  9997", "line2": "2 30198  98.4485 126.6928 0106947 171.3653 208.2857 14.50480064986364"}}, "geometry": {"type": "Point", "coordinates": [-57.62062428585859, -28.128158894159053]}}, {"type": "Feature", "properties": {"norad_id": 30199, "name": "FENGYUN 1C DEB", "group": "fengyun-1c-debris", "lat": -14.343851934265858, "lon": -162.78000010525503, "alt_km": 764.1595789960747, "timestamp": "2025-12-21T20:41:08.235907+00:00", "meta": {"OBJECT_NAME": "FENGYUN 1C DEB", "OBJECT_ID": "1999-025VG", "EPOCH": "2025-12-21T13:42:53.714592", "MEAN_MOTION": 14.38561386, "ECCENTRICITY": 0.00777164, "INCLINATION": 98.3838, "RA_OF_ASC_NODE": 19.0975, "ARG_OF_PERICENTER": 281.8701, "MEAN_ANOMALY": 210.1058, "EPHEMERIS_TYPE": 0, "CLASSIFICATION_TYPE": "U", "NORAD_CAT_ID": 30199, "ELEMENT_SET_NO": 999, "REV_AT_EPOCH": 98537, "BSTAR": 0.00072842822, "MEAN_MOTION_DOT": 2.264e-05, "MEAN_MOTION_DDOT": 0}, "tle": {"line1": "1 30199U 99025VG  25355.57145503  .00002264  00000+0  72843-3 0  9997", "line2": "2 30199  98.3838  19.0975 0077716 281.8701 210.1058 14.38561386985373"}}, "geometry": {"type": "Point", "coordinates": [-162.78000010525503, -14.343851934265858]}}, {"type": "Feature", "properties": {"norad_id": 30200, "name": "FENGYUN 1C DEB", "group": "fengyun-1c-debris", "lat": -6.134061500169923, "lon": -168.0860635034386, "alt_km": 800.3339622958329, "timestamp": "2025-12-21T20:41:08.235916+00:00", "meta": {"OBJECT_NAME": "FENGYUN 1C DEB", "OBJECT_ID": "1999-025VH", "EPOCH": "2025-12-21T12:16:21.836640", "MEAN_MOTION": 14.22282537, "ECCENTRICITY": 0.01475544, "INCLINATION": 99.1126, "RA_OF_ASC_NODE": 190.5633, "ARG_OF_PERICENTER": 74.3432, "MEAN_ANOMALY": 287.397, "EPHEMERIS_TYPE": 0, "CLASSIFICATION_TYPE": "U", "NORAD_CAT_ID": 30200, "ELEMENT_SET_NO": 999, "REV_AT_EPOCH": 98107, "BSTAR": 0.0001148583, "MEAN_MOTION_DOT": 2.38e-06, "MEAN_MOTION_DDOT": 0}, "tle": {"line1": "1 30200U 99025VH  25355.51136385  .00000238  00000+0  11486-3 0  9997", "line2": "2 30200  99.1126 190.5633 0147554  74.3432 287.3970 14.22282537981078"}}, "geometry": {"type": "Point", "coordinates": [-168.0860635034386, -6.134061500169923]}}, {"type": "Feature", "properties": {"norad_id": 30201, "name": "FENGYUN 1C DEB", "group": "fengyun-1c-debris", "lat": -69.4982702223419, "lon": 156.98924669118753, "alt_km": 801.9389955211664, "timestamp": "2025-12-21T20:41:08.235925+00:00", "meta": {"OBJECT_NAME": "FENGYUN 1C DEB", "OBJECT_ID": "1999-025VJ", "EPOCH": "2025-12-21T09:12:27.907776", "MEAN_MOTION": 14.22957783, "ECCENTRICITY": 0.00287194, "INCLINATION": 99.4014, "RA_OF_ASC_NODE": 130.1779, "ARG_OF_PERICENTER": 287.6644, "MEAN_ANOMALY": 72.1396, "EPHEMERIS_TYPE": 0, "CLASSIFICATION_TYPE": "U", "NORAD_CAT_ID": 30201, "ELEMENT_SET_NO": 999, "REV_AT_EPOCH": 97950, "BSTAR": 0.00035740867, "MEAN_MOTION_DOT": 7.57e-06, "MEAN_MOTION_DDOT": 0}, "tle": {"line1": "1 30201U 99025VJ  25355.38365634  .00000757  00000+0  35741-3 0  9990", "line2": "2 30201  99.4014 130.1779 0028719 287.6644  72.1396 14.22957783979503"}}, "geometry": {"type": "Point", "coordinates": [156.98924669118753, -69.4982702223419]}}, {"type": "Feature", "properties": {"norad_id": 30202, "name": "FENGYUN 1C DEB", "group": "fengyun-1c-debris", "lat": 25.02898968662159, "lon": -82.51026652152814, "alt_km": 731.856386300693, "timestamp": "2025-12-21T20:41:08.235934+00:00", "meta": {"OBJECT_NAME": "FENGYUN 1C DEB", "OBJECT_ID": "1999-025VK", "EPOCH": "2025-12-21T05:05:58.278048", "MEAN_MOTION": 14.52495063, "ECCENTRICITY": 0.00382785, "INCLINATION": 98.6404, "RA_OF_ASC_NODE": 92.75, "ARG_OF_PERICENTER": 32.5172, "MEAN_ANOMALY": 327.8369, "EPHEMERIS_TYPE": 0, "CLASSIFICATION_TYPE": "U", "NORAD_CAT_ID": 30202, "ELEMENT_SET_NO": 999, "REV_AT_EPOCH": 98412, "BSTAR": 0.0012893262, "MEAN_MOTION_DOT": 5.268e-05, "MEAN_MOTION_DDOT": 0}, "tle": {"line1": "1 30202U 99025VK  25355.21248007  .00005268  00000+0  12893-2 0  9991", "line2": "2 30202  98.6404  92.7500 0038278  32.5172 327.8369 14.52495063984122"}}, "geometry": {"type": "Point", "coordinates": [-82.51026652152814, 25.02898968662159]}}, {"type": "Feature", "properties": {"norad_id": 30205, "name": "FENGYUN 1C DEB", "group": "fengyun-1c-debris", "lat": -74.05072272259262, "lon": -106.79763450211274, "alt_km": 959.5656634213174, "timestamp": "2025-12-21T20:41:08.235943+00:00", "meta": {"OBJECT_NAME": "FENGYUN 1C DEB", "OBJECT_ID": "1999-025VN", "EPOCH": "2025-12-21T07:41:52.323072", "MEAN_MOTION": 13.88048341, "ECCENTRICITY": 0.0121352, "INCLINATION": 98.997, "RA_OF_ASC_NODE": 106.3472, "ARG_OF_PERICENTER": 156.6179, "MEAN_ANOMALY": 276.0889, "EPHEMERIS_TYPE": 0, "CLASSIFICATION_TYPE": "U", "NORAD_CAT_ID": 30205, "ELEMENT_SET_NO": 999, "REV_AT_EPOCH": 95757, "BSTAR": 0.00025463, "MEAN_MOTION_DOT": 2.8e-06, "MEAN_MOTION_DDOT": 0}, "tle": {"line1": "1 30205U 99025VN  25355.32074448  .00000280  00000+0  25463-3 0  9999", "line2": "2 30205  98.9970 106.3472 0121352 156.6179 276.0889 13.88048341957579"}}, "geometry": {"type": "Point", "coordinates": [-106.79763450211274, -74.05072272259262]}}, {"type": "Feature", "properties": {"norad_id": 30206, "name": "FENGYUN 1C DEB", "group": "fengyun-1c-debris", "lat": 28.38682237117417, "lon": -9.581405045160714, "alt_km": 629.9288625700656, "timestamp": "2025-12-21T20:41:08.235952+00:00", "meta": {"OBJECT_NAME": "FENGYUN 1C DEB", "OBJECT_ID": "1999-025VP", "EPOCH": "2025-12-21T10:36:54.127296", "MEAN_MOTION": 14.49187557, "ECCENTRICITY": 0.01453807, "INCLINATION": 98.2316, "RA_OF_ASC_NODE": 354.4958, "ARG_OF_PERICENTER": 9.7789, "MEAN_ANOMALY": 350.6181, "EPHEMERIS_TYPE": 0, "CLASSIFICATION_TYPE": "U", "NORAD_CAT_ID": 30206, "ELEMENT_SET_NO": 999, "REV_AT_EPOCH": 99527, "BSTAR": 0.0003961704, "MEAN_MOTION_DOT": 1.675e-05, "MEAN_MOTION_DDOT": 0}, "tle": {"line1": "1 30206U 99025VP  25355.44229314  .00001675  00000+0  39617-3 0  9992", "line2": "2 30206  98.2316 354.4958 0145380   9.7789 350.6181 14.49187557995278"}}, "geometry": {"type": "Point", "coordinates": [-9.581405045160714, 28.38682237117417]}}, {"type": "Feature", "properties": {"norad_id": 30207, "name": "FENGYUN 1C DEB", "group": "fengyun-1c-debris", "lat": -43.29675694301958, "lon": -82.4603085807724, "alt_km": 1002.1577801829744, "timestamp": "2025-12-21T20:41:08.235961+00:00", "meta": {"OBJECT_NAME": "FENGYUN 1C DEB", "OBJECT_ID": "1999-025VQ", "EPOCH": "2025-12-21T06:00:43.041024", "MEAN_MOTION": 13.79141522, "ECCENTRICITY": 0.0260747, "INCLINATION": 98.5742, "RA_OF_ASC_NODE": 105.1581, "ARG_OF_PERICENTER": 125.403, "MEAN_ANOMALY": 301.5616, "EPHEMERIS_TYPE": 0, "CLASSIFICATION_TYPE": "U", "NORAD_CAT_ID": 30207, "ELEMENT_SET_NO": 999, "REV_AT_EPOCH": 95180, "BSTAR": 0.00016807, "MEAN_MOTION_DOT": 1.86e-06, "MEAN_MOTION_DDOT": 0}, "tle": {"line1": "1 30207U 99025VQ  25355.25049816  .00000186  00000+0  16807-3 0  9991", "line2": "2 30207  98.5742 105.1581 0260747 125.4030 301.5616 13.79141522951801"}}, "geometry": {"type": "Point", "coordinates": [-82.4603085807724, -43.29675694301958]}}]}